NORAD_CAT_ID,OBJECT_NAME,OBJECT_TYPE,EPOCH,MEAN_MOTION,ECCENTRICITY,INCLINATION,RA_OF_ASC_NODE,ARG_OF_PERICENTER,MEAN_ANOMALY,BSTAR,MEAN_MOTION_DOT,MEAN_MOTION_DDOT,TLE_LINE0,TLE_LINE1,TLE_LINE2,SEMIMAJOR_AXIS,PERIOD,APOGEE,PERIGEE,DECAYED
53626.0,STARLINK-4554,PAYLOAD,2022-10-14 16:00:00,15.55149298,0.0001548,53.2175,53.2345,39.9045,278.0686,-0.01705,-0.01063542,0.0,0 STARLINK-4554,1 53626U 22104AQ  22287.66667824 -.01063542  00000-0 -17050-1 0  9994,2 53626  53.2175  53.2345 0001548  39.9045 278.0686 15.55149298  7505,6779.856,92.596,402.77,400.671,0.0
53626.0,STARLINK-4554,PAYLOAD,2022-10-14 22:00:00,15.54580461,0.0001549,53.2172,52.0302,40.3263,237.8119,-0.017429,-0.01064457,0.0,0 STARLINK-4554,1 53626U 22104AQ  22287.91667824 -.01064457  00000-0 -17429-1 0  9998,2 53626  53.2172  52.0302 0001549  40.3263 237.8119 15.54580461  1307,6781.509,92.629,404.425,402.324,0.0
53626.0,STARLINK-4554,PAYLOAD,2022-10-15 14:00:01,15.53060126,0.0001889,53.2175,48.8254,28.0028,21.3995,-0.018379,-0.01061929,0.0,0 STARLINK-4554,1 53626U 22104AQ  22288.58334491 -.01061929  00000-0 -18379-1 0  9999,2 53626  53.2175  48.8254 0001889  28.0028  21.3995 15.53060126  7650,6785.934,92.72,409.081,406.518,0.0
53626.0,STARLINK-4554,PAYLOAD,2022-10-15 22:00:01,15.52299619,0.0001569,53.2171,47.2253,41.9854,71.745,-0.018855,-0.01059811,0.0,0 STARLINK-4554,1 53626U 22104AQ  22288.91668981 -.01059811  00000-0 -18855-1 0  9996,2 53626  53.2171  47.2253 0001569  41.9854  71.7450 15.52299619  1305,6788.151,92.766,411.081,408.951,0.0
53626.0,STARLINK-4554,PAYLOAD,2022-10-16 14:00:01,15.50673481,0.0001751999999999,53.2173,44.0316,32.1876,207.2857,-0.0143819999999999,-0.00773149,0.0,0 STARLINK-4554,1 53626U 22104AQ  22289.58334491 -.00773149  00000-0 -14382-1 0  9993,2 53626  53.2173  44.0316 0001752  32.1876 207.2857 15.50673481  1300,6792.896,92.863,415.951,413.57,0.0
53626.0,STARLINK-4554,PAYLOAD,2022-10-16 22:00:00,15.50010724,0.0001506999999999,53.2172,42.437,40.6863,260.3202,-0.0034885,-0.00194476,0.0,0 STARLINK-4554,1 53626U 22104AQ  22289.91667824 -.00194476  00000-0 -34885-2 0  9990,2 53626  53.2172  42.4370 0001507  40.6863 260.3202 15.50010724  1308,6794.831999999999,92.903,417.721,415.673,0.0
53626.0,STARLINK-4554,PAYLOAD,2022-10-17 06:00:00,15.49883435,0.0001557,53.2173,40.8421,46.0927,315.8922,5.7809e-05,2.8300000000000014e-05,0.0,0 STARLINK-4554,1 53626U 22104AQ  22290.25001157  .00002830  00000-0  57809-4 0  9993,2 53626  53.2173  40.8421 0001557  46.0927 315.8922 15.49883435  7906,6795.204000000002,92.91,418.127,416.011,0.0
53626.0,STARLINK-4554,PAYLOAD,2022-10-17 14:00:01,15.49886904,0.0001991,53.2174,39.2511,33.119,29.7777,-4.565e-05,-3.042e-05,0.0,0 STARLINK-4554,1 53626U 22104AQ  22290.58334491 -.00003042  00000-0 -45650-4 0  9998,2 53626  53.2174  39.2511 0001991  33.1190  29.7777 15.49886904  1301,6795.194,92.91,418.412,415.706,0.0
53626.0,STARLINK-4554,PAYLOAD,2022-10-17 22:00:00,15.49937129,0.0001882,53.216,37.6614,328.9609,154.8978,-0.00015589,-9.306e-05,0.0,0 STARLINK-4554,1 53626U 22104AQ  22290.91667824 -.00009306  00000-0 -15589-3 0  9990,2 53626  53.2160  37.6614 0001882 328.9609 154.8978 15.49937129  8015,6795.047,92.907,418.191,415.633,0.0
53626.0,STARLINK-4554,PAYLOAD,2022-10-18 06:00:00,15.50084965,0.0001653,53.2166,36.0645,313.8439,230.9644,-0.0097793999999999,-0.00523651,0.0,0 STARLINK-4554,1 53626U 22104AQ  22291.25001157 -.00523651  00000-0 -97794-2 0  9990,2 53626  53.2166  36.0645 0001653 313.8439 230.9644 15.50084965  8062,6794.615,92.898,417.603,415.357,0.0
53626.0,STARLINK-4554,PAYLOAD,2022-10-18 14:00:01,15.49754467,0.0002815,53.2173,34.4727,298.295,307.4995,-0.0095762,-0.0050793999999999,0.0,0 STARLINK-4554,1 53626U 22104AQ  22291.58334491 -.00507940  00000-0 -95762-2 0  9992,2 53626  53.2173  34.4727 0002815 298.2950 307.4995 15.49754467  8112,6795.581,92.918,419.359,415.533,0.0
53626.0,STARLINK-4554,PAYLOAD,2022-10-18 22:00:00,15.49456102,0.0003819,53.2168,32.879,283.1295,23.2189,-0.020421,-0.0103924,0.0,0 STARLINK-4554,1 53626U 22104AQ  22291.91667824 -.01039240  00000-0 -20421-1 0  9991,2 53626  53.2168  32.8790 0003819 283.1295  23.2189 15.49456102  8166,6796.453,92.936,420.914,415.723,0.0
53626.0,STARLINK-4554,PAYLOAD,2022-10-19 14:00:01,15.47955234,0.0006948,53.2174,29.6987,271.546,153.7893,-0.021981,-0.01060224,0.0,0 STARLINK-4554,1 53626U 22104AQ  22292.58334491 -.01060224  00000-0 -21981-1 0  9994,2 53626  53.2174  29.6987 0006948 271.5460 153.7893 15.47955234  1304,6800.846,93.026,427.436,417.985,0.0
53626.0,STARLINK-4554,PAYLOAD,2022-10-19 22:00:00,15.47194657,0.0001735,53.2172,28.1102,37.2831,86.1826,-0.022561,-0.01057656,0.0,0 STARLINK-4554,1 53626U 22104AQ  22292.91667824 -.01057656  00000-0 -22561-1 0  9990,2 53626  53.2172  28.1102 0001735  37.2831  86.1826 15.47194657  8321,6803.074000000001,93.072,426.119,423.759,0.0
53626.0,STARLINK-4554,PAYLOAD,2022-10-20 14:00:01,15.456752300000002,0.0001631,53.2173,24.9415,47.0371,189.9487,-0.023754,-0.01056402,0.0,0 STARLINK-4554,1 53626U 22104AQ  22293.58334491 -.01056402  00000-0 -23754-1 0  9998,2 53626  53.2173  24.9415 0001631  47.0371 189.9487 15.45675230  1301,6807.531999999997,93.163,430.507,428.286,0.0
53626.0,STARLINK-4554,PAYLOAD,2022-10-20 22:00:00,15.44918029,0.0001576999999999,53.2173,23.3584,39.7951,252.582,-0.024488,-0.0106055,0.0,0 STARLINK-4554,1 53626U 22104AQ  22293.91667824 -.01060550  00000-0 -24488-1 0  9998,2 53626  53.2173  23.3584 0001577  39.7951 252.5820 15.44918029  8470,6809.755999999999,93.209,432.695,430.547,0.0
53626.0,STARLINK-4554,PAYLOAD,2022-10-21 14:00:01,15.4339897,0.0001799,53.2175,20.2007,32.3249,8.0962,-0.025775,-0.01059906,0.0,0 STARLINK-4554,1 53626U 22104AQ  22294.58334491 -.01059906  00000-0 -25775-1 0  9996,2 53626  53.2175  20.2007 0001799  32.3249   8.0962 15.43398970  1305,6814.223000000001,93.301,437.314,434.86300000000006,0.0
53626.0,STARLINK-4554,PAYLOAD,2022-10-21 22:00:00,15.42648581,0.0001781,53.2172,18.6234,33.162,59.9085,-0.02677,-0.0108714,0.0,0 STARLINK-4554,1 53626U 22104AQ  22294.91667824 -.01087140  00000-0 -26770-1 0  9999,2 53626  53.2172  18.6234 0001781  33.1620  59.9085 15.42648581  1304,6816.433000000001,93.346,439.512,437.084,0.0
53626.0,STARLINK-4554,PAYLOAD,2022-10-22 14:00:01,15.41116355,0.0001766,53.2176,15.4767,47.1016,148.5425,-0.027616,-0.01066909,0.0,0 STARLINK-4554,1 53626U 22104AQ  22295.58334491 -.01066909  00000-0 -27616-1 0  9994,2 53626  53.2176  15.4767 0001766  47.1016 148.5425 15.41116355  1302,6820.95,93.439,444.02,441.611,0.0
53626.0,STARLINK-4554,PAYLOAD,2022-10-22 22:00:00,15.40368453,0.0001773,53.2173,13.9041,39.3129,206.2429,-0.028842,-0.01085203,0.0,0 STARLINK-4554,1 53626U 22104AQ  22295.91667824 -.01085203  00000-0 -28842-1 0  9990,2 53626  53.2173  13.9041 0001773  39.3129 206.2429 15.40368453  1306,6823.158,93.484,446.233,443.81300000000016,0.0
53626.0,STARLINK-4554,PAYLOAD,2022-10-23 14:00:01,15.38841679,0.0001599,53.2175,10.7685,39.1393,303.5114,-0.029968,-0.01072998,0.0,0 STARLINK-4554,1 53626U 22104AQ  22296.58334491 -.01072998  00000-0 -29968-1 0  9992,2 53626  53.2175  10.7685 0001599  39.1393 303.5114 15.38841679  1309,6827.67,93.577,450.627,448.444,0.0
53626.0,STARLINK-4554,PAYLOAD,2022-10-23 22:00:00,15.38079324,0.0001668,53.2173,9.2009,33.2062,356.6246,-0.030619,-0.01069506,0.0,0 STARLINK-4554,1 53626U 22104AQ  22296.91667824 -.01069506  00000-0 -30619-1 0  9994,2 53626  53.2173   9.2009 0001668  33.2062 356.6246 15.38079324  8947,6829.926,93.623,452.931,450.652,0.0
53626.0,STARLINK-4554,PAYLOAD,2022-10-24 14:00:01,15.36560769,0.0001686,53.2175,6.0765,43.368,78.0778,-0.032151,-0.01068821,0.0,0 STARLINK-4554,1 53626U 22104AQ  22297.58334491 -.01068821  00000-0 -32151-1 0  9991,2 53626  53.2175   6.0765 0001686  43.3680  78.0778 15.36560769  1305,6834.426,93.716,457.443,455.138,0.0
53626.0,STARLINK-4554,PAYLOAD,2022-10-24 22:00:00,15.35805802,0.0001801,53.2172,4.5147,37.1594,128.7246,-0.033164,-0.01075334,0.0,0 STARLINK-4554,1 53626U 22104AQ  22297.91667824 -.01075334  00000-0 -33164-1 0  9999,2 53626  53.2172   4.5147 0001801  37.1594 128.7246 15.35805802  9099,6836.665,93.762,459.761,457.299,0.0
53626.0,STARLINK-4554,PAYLOAD,2022-10-25 14:00:01,15.3428142,0.0001736,53.2173,1.401,45.206,206.8196,-0.034513,-0.01066352,0.0,0 STARLINK-4554,1 53626U 22104AQ  22298.58334491 -.01066352  00000-0 -34513-1 0  9993,2 53626  53.2173   1.4010 0001736  45.2060 206.8196 15.34281420  1301,6841.193,93.855,464.245,461.87,0.0
53626.0,STARLINK-4554,PAYLOAD,2022-10-25 22:00:01,15.33525411,0.0001608,53.2173,359.8441,38.8152,254.976,-0.0355959999999999,-0.01072992,0.0,0 STARLINK-4554,1 53626U 22104AQ  22298.91668981 -.01072992  00000-0 -35596-1 0  9993,2 53626  53.2173 359.8441 0001608  38.8152 254.9760 15.33525411  9249,6843.441,93.901,466.406,464.206,0.0
53626.0,STARLINK-4554,PAYLOAD,2022-10-26 14:00:01,15.32002287,0.0001824,53.2174,356.7406,31.4924,342.9005,-0.037089,-0.01066019,0.0,0 STARLINK-4554,1 53626U 22104AQ  22299.58334491 -.01066019  00000-0 -37089-1 0  9995,2 53626  53.2174 356.7406 0001824  31.4924 342.9005 15.32002287  1302,6847.976,93.995,471.09,468.592,0.0
53626.0,STARLINK-4554,PAYLOAD,2022-10-26 22:00:00,15.31243229,0.0001599,53.2175,355.1893,38.6959,14.6613,-0.038023,-0.01066958,0.0,0 STARLINK-4554,1 53626U 22104AQ  22299.91667824 -.01066958  00000-0 -38023-1 0  9992,2 53626  53.2175 355.1893 0001599  38.6959  14.6613 15.31243229  9401,6850.239000000001,94.041,473.199,471.009,0.0
53626.0,STARLINK-4554,PAYLOAD,2022-10-27 14:00:01,15.29769979,0.0001831999999999,53.217,352.0981,37.1123,91.4714,-0.042216,-0.0112588,0.0,0 STARLINK-4554,1 53626U 22104AQ  22300.58335648 -.01125880  00000-0 -42216-1 0  9993,2 53626  53.2170 352.0981 0001832  37.1123  91.4714 15.29769979  1305,6854.636,94.132,477.757,475.246,0.0
